CELESTIS-17 & SHERPA-FX1
1 47486U 21006CB  26068.64311433  .00007207  00000+0  24301-3 0  9993
2 47486  97.2397 112.1052 0006630 178.1385 181.9882 15.30994801284065
STARLINK-33872          
1 64189U 25113V   26068.44848278  .00031019  00000+0  10544-2 0  9996
2 64189  53.1605  91.8609 0001442  59.9173 300.1971 15.30220217 44998
